ONEWEB-0350             
1 49214U 21083AE  24193.71531482 -.00000144  00000+0 -43026-3 0  9992
2 49214  87.8935 100.6386 0001689  82.8559 277.2762 13.13471065138328
ONEWEB-0351             
1 49215U 21083AF  24193.88772722  .00000044  00000+0  75791-4 0  9997
2 49215  87.9190  54.7634 0001727  51.1269 309.0018 13.20771635143674
ONEWEB-0352             
1 49216U 21083AG  24193.77246491 -.00004103  00000+0 -11276-1 0  9992
2 49216  87.8946 100.6591 0001174  81.5759 278.5503 13.13469784138420
ONEWEB-0354             
1 49217U 21083AH  24193.61007529 -.00000006  00000+0 -45759-4 0  9997
2 49217  87.9192  54.8047 0001479  85.2149 274.9153 13.20770715144989
ONEWEB-0355             
1 49218U 21083AJ  24193.72643669  .00000308  00000+0  80924-3 0  9996
2 49218  87.8931 100.6674 0001834  74.3867 285.7464 13.13469607138296
ONEWEB-0357             
1 49219U 21083AK  24193.60691948 -.00000037  00000+0 -12186-3 0  9993
2 49219  87.9189  54.8228 0001685  76.7061 283.4260 13.20771095143676
ONEWEB-0332             
1 49279U 21090A   24193.91123620 -.00000180  00000+0 -51993-3 0  9996
2 49279  87.8949  70.0312 0002041  73.0194 287.1160 13.14501979134926
ONEWEB-0347             
1 49280U 21090B   24193.90047783 -.00000009  00000+0 -53924-4 0  9999
2 49280  87.9193  54.7639 0002234  74.9557 285.1823 13.20772363137941
