<?xml version="1.0" encoding="UTF-8"?>
<ndm xmlns:xsi="http://www.w3.org/2001/XMLSchema-instance" xsi:noNamespaceSchemaLocation="https://sanaregistry.org/r/ndmxml_unqualified/ndmxml-2.0.0-master-2.0.xsd">
<omm id="CCSDS_OMM_VERS" version="2.0">
<header><CREATION_DATE/><ORIGINATOR/></header><body><segment><metadata><OBJECT_NAME>ONEWEB-0350</OBJECT_NAME><OBJECT_ID>2021-083AE</OBJECT_ID><CENTER_NAME>EARTH</CENTER_NAME><REF_FRAME>TEME</REF_FRAME><TIME_SYSTEM>UTC</TIME_SYSTEM><MEAN_ELEMENT_THEORY>SGP4</MEAN_ELEMENT_THEORY></metadata><data><meanElements><EPOCH>2024-07-11T17:10:03.200448</EPOCH><MEAN_MOTION>13.13471065</MEAN_MOTION><ECCENTRICITY>.0001689</ECCENTRICITY><INCLINATION>87.8935</INCLINATION><RA_OF_ASC_NODE>100.6386</RA_OF_ASC_NODE><ARG_OF_PERICENTER>82.8559</ARG_OF_PERICENTER><MEAN_ANOMALY>277.2762</MEAN_ANOMALY></meanElements><tleParameters><EPHEMERIS_TYPE>0</EPHEMERIS_TYPE><CLASSIFICATION_TYPE>U</CLASSIFICATION_TYPE><NORAD_CAT_ID>49214</NORAD_CAT_ID><ELEMENT_SET_NO>999</ELEMENT_SET_NO><REV_AT_EPOCH>13832</REV_AT_EPOCH><BSTAR>-.43026E-3</BSTAR><MEAN_MOTION_DOT>-.144E-5</MEAN_MOTION_DOT><MEAN_MOTION_DDOT>0</MEAN_MOTION_DDOT></tleParameters></data></segment></body></omm>
<omm id="CCSDS_OMM_VERS" version="2.0">
<header><CREATION_DATE/><ORIGINATOR/></header><body><segment><metadata><OBJECT_NAME>ONEWEB-0351</OBJECT_NAME><OBJECT_ID>2021-083AF</OBJECT_ID><CENTER_NAME>EARTH</CENTER_NAME><REF_FRAME>TEME</REF_FRAME><TIME_SYSTEM>UTC</TIME_SYSTEM><MEAN_ELEMENT_THEORY>SGP4</MEAN_ELEMENT_THEORY></metadata><data><meanElements><EPOCH>2024-07-11T21:18:19.631808</EPOCH><MEAN_MOTION>13.20771635</MEAN_MOTION><ECCENTRICITY>.0001727</ECCENTRICITY><INCLINATION>87.9190</INCLINATION><RA_OF_ASC_NODE>54.7634</RA_OF_ASC_NODE><ARG_OF_PERICENTER>51.1269</ARG_OF_PERICENTER><MEAN_ANOMALY>309.0018</MEAN_ANOMALY></meanElements><tleParameters><EPHEMERIS_TYPE>0</EPHEMERIS_TYPE><CLASSIFICATION_TYPE>U</CLASSIFICATION_TYPE><NORAD_CAT_ID>49215</NORAD_CAT_ID><ELEMENT_SET_NO>999</ELEMENT_SET_NO><REV_AT_EPOCH>14367</REV_AT_EPOCH><BSTAR>.75791E-4</BSTAR><MEAN_MOTION_DOT>.44E-6</MEAN_MOTION_DOT><MEAN_MOTION_DDOT>0</MEAN_MOTION_DDOT></tleParameters></data></segment></body></omm>
<omm id="CCSDS_OMM_VERS" version="2.0">
<header><CREATION_DATE/><ORIGINATOR/></header><body><segment><metadata><OBJECT_NAME>ONEWEB-0352</OBJECT_NAME><OBJECT_ID>2021-083AG</OBJECT_ID><CENTER_NAME>EARTH</CENTER_NAME><REF_FRAME>TEME</REF_FRAME><TIME_SYSTEM>UTC</TIME_SYSTEM><MEAN_ELEMENT_THEORY>SGP4</MEAN_ELEMENT_THEORY></metadata><data><meanElements><EPOCH>2024-07-11T18:32:20.968224</EPOCH><MEAN_MOTION>13.13469784</MEAN_MOTION><ECCENTRICITY>.0001174</ECCENTRICITY><INCLINATION>87.8946</INCLINATION><RA_OF_ASC_NODE>100.6591</RA_OF_ASC_NODE><ARG_OF_PERICENTER>81.5759</ARG_OF_PERICENTER><MEAN_ANOMALY>278.5503</MEAN_ANOMALY></meanElements><tleParameters><EPHEMERIS_TYPE>0</EPHEMERIS_TYPE><CLASSIFICATION_TYPE>U</CLASSIFICATION_TYPE><NORAD_CAT_ID>49216</NORAD_CAT_ID><ELEMENT_SET_NO>999</ELEMENT_SET_NO><REV_AT_EPOCH>13842</REV_AT_EPOCH><BSTAR>-.11276E-1</BSTAR><MEAN_MOTION_DOT>-.4103E-4</MEAN_MOTION_DOT><MEAN_MOTION_DDOT>0</MEAN_MOTION_DDOT></tleParameters></data></segment></body></omm>
<omm id="CCSDS_OMM_VERS" version="2.0">
<header><CREATION_DATE/><ORIGINATOR/></header><body><segment><metadata><OBJECT_NAME>ONEWEB-0354</OBJECT_NAME><OBJECT_ID>2021-083AH</OBJECT_ID><CENTER_NAME>EARTH</CENTER_NAME><REF_FRAME>TEME</REF_FRAME><TIME_SYSTEM>UTC</TIME_SYSTEM><MEAN_ELEMENT_THEORY>SGP4</MEAN_ELEMENT_THEORY></metadata><data><meanElements><EPOCH>2024-07-11T14:38:30.505056</EPOCH><MEAN_MOTION>13.20770715</MEAN_MOTION><ECCENTRICITY>.0001479</ECCENTRICITY><INCLINATION>87.9192</INCLINATION><RA_OF_ASC_NODE>54.8047</RA_OF_ASC_NODE><ARG_OF_PERICENTER>85.2149</ARG_OF_PERICENTER><MEAN_ANOMALY>274.9153</MEAN_ANOMALY></meanElements><tleParameters><EPHEMERIS_TYPE>0</EPHEMERIS_TYPE><CLASSIFICATION_TYPE>U</CLASSIFICATION_TYPE><NORAD_CAT_ID>49217</NORAD_CAT_ID><ELEMENT_SET_NO>999</ELEMENT_SET_NO><REV_AT_EPOCH>14498</REV_AT_EPOCH><BSTAR>-.45759E-4</BSTAR><MEAN_MOTION_DOT>-.6E-7</MEAN_MOTION_DOT><MEAN_MOTION_DDOT>0</MEAN_MOTION_DDOT></tleParameters></data></segment></body></omm>
<omm id="CCSDS_OMM_VERS" version="2.0">
<header><CREATION_DATE/><ORIGINATOR/></header><body><segment><metadata><OBJECT_NAME>ONEWEB-0355</OBJECT_NAME><OBJECT_ID>2021-083AJ</OBJECT_ID><CENTER_NAME>EARTH</CENTER_NAME><REF_FRAME>TEME</REF_FRAME><TIME_SYSTEM>UTC</TIME_SYSTEM><MEAN_ELEMENT_THEORY>SGP4</MEAN_ELEMENT_THEORY></metadata><data><meanElements><EPOCH>2024-07-11T17:26:04.130016</EPOCH><MEAN_MOTION>13.13469607</MEAN_MOTION><ECCENTRICITY>.0001834</ECCENTRICITY><INCLINATION>87.8931</INCLINATION><RA_OF_ASC_NODE>100.6674</RA_OF_ASC_NODE><ARG_OF_PERICENTER>74.3867</ARG_OF_PERICENTER><MEAN_ANOMALY>285.7464</MEAN_ANOMALY></meanElements><tleParameters><EPHEMERIS_TYPE>0</EPHEMERIS_TYPE><CLASSIFICATION_TYPE>U</CLASSIFICATION_TYPE><NORAD_CAT_ID>49218</NORAD_CAT_ID><ELEMENT_SET_NO>999</ELEMENT_SET_NO><REV_AT_EPOCH>13829</REV_AT_EPOCH><BSTAR>.80924E-3</BSTAR><MEAN_MOTION_DOT>.308E-5</MEAN_MOTION_DOT><MEAN_MOTION_DDOT>0</MEAN_MOTION_DDOT></tleParameters></data></segment></body></omm>
<omm id="CCSDS_OMM_VERS" version="2.0">
<header><CREATION_DATE/><ORIGINATOR/></header><body><segment><metadata><OBJECT_NAME>ONEWEB-0357</OBJECT_NAME><OBJECT_ID>2021-083AK</OBJECT_ID><CENTER_NAME>EARTH</CENTER_NAME><REF_FRAME>TEME</REF_FRAME><TIME_SYSTEM>UTC</TIME_SYSTEM><MEAN_ELEMENT_THEORY>SGP4</MEAN_ELEMENT_THEORY></metadata><data><meanElements><EPOCH>2024-07-11T14:33:57.843072</EPOCH><MEAN_MOTION>13.20771095</MEAN_MOTION><ECCENTRICITY>.0001685</ECCENTRICITY><INCLINATION>87.9189</INCLINATION><RA_OF_ASC_NODE>54.8228</RA_OF_ASC_NODE><ARG_OF_PERICENTER>76.7061</ARG_OF_PERICENTER><MEAN_ANOMALY>283.4260</MEAN_ANOMALY></meanElements><tleParameters><EPHEMERIS_TYPE>0</EPHEMERIS_TYPE><CLASSIFICATION_TYPE>U</CLASSIFICATION_TYPE><NORAD_CAT_ID>49219</NORAD_CAT_ID><ELEMENT_SET_NO>999</ELEMENT_SET_NO><REV_AT_EPOCH>14367</REV_AT_EPOCH><BSTAR>-.12186E-3</BSTAR><MEAN_MOTION_DOT>-.37E-6</MEAN_MOTION_DOT><MEAN_MOTION_DDOT>0</MEAN_MOTION_DDOT></tleParameters></data></segment></body></omm>
<omm id="CCSDS_OMM_VERS" version="2.0">
<header><CREATION_DATE/><ORIGINATOR/></header><body><segment><metadata><OBJECT_NAME>ONEWEB-0332</OBJECT_NAME><OBJECT_ID>2021-090A</OBJECT_ID><CENTER_NAME>EARTH</CENTER_NAME><REF_FRAME>TEME</REF_FRAME><TIME_SYSTEM>UTC</TIME_SYSTEM><MEAN_ELEMENT_THEORY>SGP4</MEAN_ELEMENT_THEORY></metadata><data><meanElements><EPOCH>2024-07-11T21:52:10.807680</EPOCH><MEAN_MOTION>13.14501979</MEAN_MOTION><ECCENTRICITY>.0002041</ECCENTRICITY><INCLINATION>87.8949</INCLINATION><RA_OF_ASC_NODE>70.0312</RA_OF_ASC_NODE><ARG_OF_PERICENTER>73.0194</ARG_OF_PERICENTER><MEAN_ANOMALY>287.1160</MEAN_ANOMALY></meanElements><tleParameters><EPHEMERIS_TYPE>0</EPHEMERIS_TYPE><CLASSIFICATION_TYPE>U</CLASSIFICATION_TYPE><NORAD_CAT_ID>49279</NORAD_CAT_ID><ELEMENT_SET_NO>999</ELEMENT_SET_NO><REV_AT_EPOCH>13492</REV_AT_EPOCH><BSTAR>-.51993E-3</BSTAR><MEAN_MOTION_DOT>-.18E-5</MEAN_MOTION_DOT><MEAN_MOTION_DDOT>0</MEAN_MOTION_DDOT></tleParameters></data></segment></body></omm>
<omm id="CCSDS_OMM_VERS" version="2.0">
<header><CREATION_DATE/><ORIGINATOR/></header><body><segment><metadata><OBJECT_NAME>ONEWEB-0347</OBJECT_NAME><OBJECT_ID>2021-090B</OBJECT_ID><CENTER_NAME>EARTH</CENTER_NAME><REF_FRAME>TEME</REF_FRAME><TIME_SYSTEM>UTC</TIME_SYSTEM><MEAN_ELEMENT_THEORY>SGP4</MEAN_ELEMENT_THEORY></metadata><data><meanElements><EPOCH>2024-07-11T21:36:41.284512</EPOCH><MEAN_MOTION>13.20772363</MEAN_MOTION><ECCENTRICITY>.0002234</ECCENTRICITY><INCLINATION>87.9193</INCLINATION><RA_OF_ASC_NODE>54.7639</RA_OF_ASC_NODE><ARG_OF_PERICENTER>74.9557</ARG_OF_PERICENTER><MEAN_ANOMALY>285.1823</MEAN_ANOMALY></meanElements><tleParameters><EPHEMERIS_TYPE>0</EPHEMERIS_TYPE><CLASSIFICATION_TYPE>U</CLASSIFICATION_TYPE><NORAD_CAT_ID>49280</NORAD_CAT_ID><ELEMENT_SET_NO>999</ELEMENT_SET_NO><REV_AT_EPOCH>13794</REV_AT_EPOCH><BSTAR>-.53924E-4</BSTAR><MEAN_MOTION_DOT>-.9E-7</MEAN_MOTION_DOT><MEAN_MOTION_DDOT>0</MEAN_MOTION_DDOT></tleParameters></data></segment></body></omm>

</ndm>
